CCSDS_OMM_VERS = 2.0
CREATION_DATE  = 
ORIGINATOR     = 

OBJECT_NAME    = SL-14 R/B
OBJECT_ID      = 1986-046B
CENTER_NAME    = EARTH
REF_FRAME      = TEME
TIME_SYSTEM    = UTC
MEAN_ELEMENT_THEORY = SGP/SGP4

EPOCH          = 2025-12-18T23:29:45.493728
MEAN_MOTION    = 14.85491337
ECCENTRICITY   = .00242179
INCLINATION    = 82.4813
RA_OF_ASC_NODE = 156.4215
ARG_OF_PERICENTER = 132.3927
MEAN_ANOMALY   = 227.9345

EPHEMERIS_TYPE = 0
CLASSIFICATION_TYPE = U
NORAD_CAT_ID   = 16792
ELEMENT_SET_NO = 999
REV_AT_EPOCH   = 11442
BSTAR          = .486605E-4
MEAN_MOTION_DOT = .447E-5
MEAN_MOTION_DDOT = 0

CCSDS_OMM_VERS = 2.0
CREATION_DATE  = 
ORIGINATOR     = 

OBJECT_NAME    = SL-14 R/B
OBJECT_ID      = 1986-055B
CENTER_NAME    = EARTH
REF_FRAME      = TEME
TIME_SYSTEM    = UTC
MEAN_ELEMENT_THEORY = SGP/SGP4

EPOCH          = 2025-12-19T02:56:46.449312
MEAN_MOTION    = 14.85536757
ECCENTRICITY   = .00176424
INCLINATION    = 82.5197
RA_OF_ASC_NODE = 202.3749
ARG_OF_PERICENTER = 236.5271
MEAN_ANOMALY   = 243.6311

EPHEMERIS_TYPE = 0
CLASSIFICATION_TYPE = U
NORAD_CAT_ID   = 16882
ELEMENT_SET_NO = 999
REV_AT_EPOCH   = 10740
BSTAR          = .40672264E-4
MEAN_MOTION_DOT = .376E-5
MEAN_MOTION_DDOT = 0

CCSDS_OMM_VERS = 2.0
CREATION_DATE  = 
ORIGINATOR     = 

OBJECT_NAME    = AJISAI (EGS)
OBJECT_ID      = 1986-061A
CENTER_NAME    = EARTH
REF_FRAME      = TEME
TIME_SYSTEM    = UTC
MEAN_ELEMENT_THEORY = SGP/SGP4

EPOCH          = 2025-12-19T07:15:35.796096
MEAN_MOTION    = 12.44514352
ECCENTRICITY   = .00113143
INCLINATION    = 50.0113
RA_OF_ASC_NODE = 340.5372
ARG_OF_PERICENTER = 82.3795
MEAN_ANOMALY   = 231.6586

EPHEMERIS_TYPE = 0
CLASSIFICATION_TYPE = U
NORAD_CAT_ID   = 16908
ELEMENT_SET_NO = 999
REV_AT_EPOCH   = 45798
BSTAR          = .13573951E-4
MEAN_MOTION_DOT = -.96E-6
MEAN_MOTION_DDOT = 0

CCSDS_OMM_VERS = 2.0
CREATION_DATE  = 
ORIGINATOR     = 

OBJECT_NAME    = COSMOS 1812
OBJECT_ID      = 1987-003A
CENTER_NAME    = EARTH
REF_FRAME      = TEME
TIME_SYSTEM    = UTC
MEAN_ELEMENT_THEORY = SGP/SGP4

EPOCH          = 2025-12-19T04:56:55.137408
MEAN_MOTION    = 15.76785368
ECCENTRICITY   = .00069491
INCLINATION    = 82.4880
RA_OF_ASC_NODE = 285.0099
ARG_OF_PERICENTER = 77.8003
MEAN_ANOMALY   = 282.4040

EPHEMERIS_TYPE = 0
CLASSIFICATION_TYPE = U
NORAD_CAT_ID   = 17295
ELEMENT_SET_NO = 999
REV_AT_EPOCH   = 13167
BSTAR          = .53659922E-3
MEAN_MOTION_DOT = .86796E-3
MEAN_MOTION_DDOT = 0

CCSDS_OMM_VERS = 2.0
CREATION_DATE  = 
ORIGINATOR     = 

OBJECT_NAME    = SL-14 R/B
OBJECT_ID      = 1987-024B
CENTER_NAME    = EARTH
REF_FRAME      = TEME
TIME_SYSTEM    = UTC
MEAN_ELEMENT_THEORY = SGP/SGP4

EPOCH          = 2025-12-19T05:50:53.561472
MEAN_MOTION    = 14.86030122
ECCENTRICITY   = .00186481
INCLINATION    = 82.5276
RA_OF_ASC_NODE = 168.3445
ARG_OF_PERICENTER = 162.7457
MEAN_ANOMALY   = 197.4398

EPHEMERIS_TYPE = 0
CLASSIFICATION_TYPE = U
NORAD_CAT_ID   = 17567
ELEMENT_SET_NO = 999
REV_AT_EPOCH   = 7618
BSTAR          = .43474779E-4
MEAN_MOTION_DOT = .406E-5
MEAN_MOTION_DDOT = 0

CCSDS_OMM_VERS = 2.0
CREATION_DATE  = 
ORIGINATOR     = 

OBJECT_NAME    = COSMOS 1833
OBJECT_ID      = 1987-027A
CENTER_NAME    = EARTH
REF_FRAME      = TEME
TIME_SYSTEM    = UTC
MEAN_ELEMENT_THEORY = SGP/SGP4

EPOCH          = 2025-12-18T19:20:22.435872
MEAN_MOTION    = 14.13024370
ECCENTRICITY   = .0022786
INCLINATION    = 70.9146
RA_OF_ASC_NODE = 136.0250
ARG_OF_PERICENTER = 323.2412
MEAN_ANOMALY   = 36.7145

EPHEMERIS_TYPE = 0
CLASSIFICATION_TYPE = U
NORAD_CAT_ID   = 17589
ELEMENT_SET_NO = 999
REV_AT_EPOCH   = 99888
BSTAR          = .12924334E-3
MEAN_MOTION_DOT = .194E-5
MEAN_MOTION_DDOT = 0

CCSDS_OMM_VERS = 2.0
CREATION_DATE  = 
ORIGINATOR     = 

OBJECT_NAME    = SL-16 R/B
OBJECT_ID      = 1987-027B
CENTER_NAME    = EARTH
REF_FRAME      = TEME
TIME_SYSTEM    = UTC
MEAN_ELEMENT_THEORY = SGP/SGP4

EPOCH          = 2025-12-19T05:25:00.823008
MEAN_MOTION    = 14.17154702
ECCENTRICITY   = .00072677
INCLINATION    = 71.0037
RA_OF_ASC_NODE = 86.0515
ARG_OF_PERICENTER = 252.6150
MEAN_ANOMALY   = 107.4179

EPHEMERIS_TYPE = 0
CLASSIFICATION_TYPE = U
NORAD_CAT_ID   = 17590
ELEMENT_SET_NO = 999
REV_AT_EPOCH   = 394
BSTAR          = .13790759E-3
MEAN_MOTION_DOT = .23E-5
MEAN_MOTION_DDOT = 0

CCSDS_OMM_VERS = 2.0
CREATION_DATE  = 
ORIGINATOR     = 

OBJECT_NAME    = SL-14 R/B
OBJECT_ID      = 1987-038B
CENTER_NAME    = EARTH
REF_FRAME      = TEME
TIME_SYSTEM    = UTC
MEAN_ELEMENT_THEORY = SGP/SGP4

EPOCH          = 2025-12-19T03:07:04.856448
MEAN_MOTION    = 14.85266770
ECCENTRICITY   = .00208254
INCLINATION    = 82.5012
RA_OF_ASC_NODE = 12.6818
ARG_OF_PERICENTER = 72.5509
MEAN_ANOMALY   = 287.7982

EPHEMERIS_TYPE = 0
CLASSIFICATION_TYPE = U
NORAD_CAT_ID   = 17912
ELEMENT_SET_NO = 999
REV_AT_EPOCH   = 6727
BSTAR          = .39892411E-4
MEAN_MOTION_DOT = .368E-5
MEAN_MOTION_DDOT = 0

CCSDS_OMM_VERS = 2.0
CREATION_DATE  = 
ORIGINATOR     = 

OBJECT_NAME    = COSMOS 1844
OBJECT_ID      = 1987-041A
CENTER_NAME    = EARTH
REF_FRAME      = TEME
TIME_SYSTEM    = UTC
MEAN_ELEMENT_THEORY = SGP/SGP4

EPOCH          = 2025-12-19T06:43:13.031616
MEAN_MOTION    = 14.14527545
ECCENTRICITY   = .00298503
INCLINATION    = 70.8964
RA_OF_ASC_NODE = 203.7765
ARG_OF_PERICENTER = 146.7455
MEAN_ANOMALY   = 213.5550

EPHEMERIS_TYPE = 0
CLASSIFICATION_TYPE = U
NORAD_CAT_ID   = 17973
ELEMENT_SET_NO = 999
REV_AT_EPOCH   = 99221
BSTAR          = .12674095E-3
MEAN_MOTION_DOT = .196E-5
MEAN_MOTION_DDOT = 0

CCSDS_OMM_VERS = 2.0
CREATION_DATE  = 
ORIGINATOR     = 

OBJECT_NAME    = SL-14 R/B
OBJECT_ID      = 1987-055B
CENTER_NAME    = EARTH
REF_FRAME      = TEME
TIME_SYSTEM    = UTC
MEAN_ELEMENT_THEORY = SGP/SGP4

EPOCH          = 2025-12-19T06:07:44.907168
MEAN_MOTION    = 14.85527473
ECCENTRICITY   = .0019189
INCLINATION    = 82.4997
RA_OF_ASC_NODE = 64.8481
ARG_OF_PERICENTER = 280.2236
MEAN_ANOMALY   = 79.6816

EPHEMERIS_TYPE = 0
CLASSIFICATION_TYPE = U
NORAD_CAT_ID   = 18153
ELEMENT_SET_NO = 999
REV_AT_EPOCH   = 5799
BSTAR          = .38973845E-4
MEAN_MOTION_DOT = .361E-5
MEAN_MOTION_DDOT = 0

CCSDS_OMM_VERS = 2.0
CREATION_DATE  = 
ORIGINATOR     = 

OBJECT_NAME    = COSMOS 1867
OBJECT_ID      = 1987-060A
CENTER_NAME    = EARTH
REF_FRAME      = TEME
TIME_SYSTEM    = UTC
MEAN_ELEMENT_THEORY = SGP/SGP4

EPOCH          = 2025-12-19T05:45:17.711712
MEAN_MOTION    = 14.31487119
ECCENTRICITY   = .001364
INCLINATION    = 65.0086
RA_OF_ASC_NODE = 171.9996
ARG_OF_PERICENTER = 271.7720
MEAN_ANOMALY   = 88.1802

EPHEMERIS_TYPE = 0
CLASSIFICATION_TYPE = U
NORAD_CAT_ID   = 18187
ELEMENT_SET_NO = 999
REV_AT_EPOCH   = 842
BSTAR          = .19898267E-4
MEAN_MOTION_DOT = -.47E-6
MEAN_MOTION_DDOT = 0

CCSDS_OMM_VERS = 2.0
CREATION_DATE  = 
ORIGINATOR     = 

OBJECT_NAME    = SL-14 R/B
OBJECT_ID      = 1988-001B
CENTER_NAME    = EARTH
REF_FRAME      = TEME
TIME_SYSTEM    = UTC
MEAN_ELEMENT_THEORY = SGP/SGP4

EPOCH          = 2025-12-19T05:53:24.310464
MEAN_MOTION    = 14.85430318
ECCENTRICITY   = .00190105
INCLINATION    = 82.5136
RA_OF_ASC_NODE = 271.0286
ARG_OF_PERICENTER = 140.4579
MEAN_ANOMALY   = 219.8029

EPHEMERIS_TYPE = 0
CLASSIFICATION_TYPE = U
NORAD_CAT_ID   = 18749
ELEMENT_SET_NO = 999
REV_AT_EPOCH   = 3008
BSTAR          = .40910797E-4
MEAN_MOTION_DOT = .378E-5
MEAN_MOTION_DDOT = 0

