SL-14 R/B               
1 16792U 86046B   25352.97899877  .00000447  00000+0  48660-4 0  9992
2 16792  82.4813 156.4215 0024217 132.3927 227.9345 14.85491337114429
SL-14 R/B               
1 16882U 86055B   25353.12275983  .00000376  00000+0  40672-4 0  9992
2 16882  82.5197 202.3749 0017642 236.5271 243.6311 14.85536757107405
AJISAI (EGS)            
1 16908U 86061A   25353.30249764 -.00000096  00000+0  13574-4 0  9997
2 16908  50.0113 340.5372 0011314  82.3795 231.6586 12.44514352457989
COSMOS 1812             
1 17295U 87003A   25353.20619372  .00086796  00000+0  53660-3 0  9998
2 17295  82.4880 285.0099 0006949  77.8003 282.4040 15.76785368131676
SL-14 R/B               
1 17567U 87024B   25353.24367548  .00000406  00000+0  43475-4 0  9990
2 17567  82.5276 168.3445 0018648 162.7457 197.4398 14.86030122 76188
COSMOS 1833             
1 17589U 87027A   25352.80581523  .00000194  00000+0  12924-3 0  9997
2 17589  70.9146 136.0250 0022786 323.2412  36.7145 14.13024370998881
SL-16 R/B               
1 17590U 87027B   25353.22570397  .00000230  00000+0  13791-3 0  9997
2 17590  71.0037  86.0515 0007267 252.6150 107.4179 14.17154702  3947
SL-14 R/B               
1 17912U 87038B   25353.12991732  .00000368  00000+0  39892-4 0  9999
2 17912  82.5012  12.6818 0020825  72.5509 287.7982 14.85266770 67272
COSMOS 1844             
1 17973U 87041A   25353.28001194  .00000196  00000+0  12674-3 0  9998
2 17973  70.8964 203.7765 0029850 146.7455 213.5550 14.14527545992211
SL-14 R/B               
1 18153U 87055B   25353.25538087  .00000361  00000+0  38974-4 0  9993
2 18153  82.4997  64.8481 0019189 280.2236  79.6816 14.85527473 57994
COSMOS 1867             
1 18187U 87060A   25353.23978833 -.00000047  00000+0  19898-4 0  9997
2 18187  65.0086 171.9996 0013640 271.7720  88.1802 14.31487119  8424
SL-14 R/B               
1 18749U 88001B   25353.24542026  .00000378  00000+0  40911-4 0  9995
2 18749  82.5136 271.0286 0019010 140.4579 219.8029 14.85430318 30082
